AQUA                    
1 27424U 02022A   26073.55881654  .00001257  00000+0  26065-3 0  9991
2 27424  98.4181  41.0126 0000610  99.4370  40.4397 14.61990486269445
CZ-4B R/B               
1 27432U 02024C   26073.61917165  .00000060  00000+0  53805-4 0  9990
2 27432  98.8828 127.0007 0050244  10.2649 150.5250 14.14548748229936
MIDORI II (ADEOS-II)    
1 27597U 02056A   26073.49401724  .00000368  00000+0  16247-3 0  9991
2 27597  98.7775  32.0049 0001411  36.2929 323.8348 14.29289399210988
H-2A R/B                
1 27601U 02056E   26073.53347476  .00000315  00000+0  12470-3 0  9991
2 27601  98.3209  33.7148 0070779 146.3358 330.7699 14.33764385214801
CZ-4B R/B               
1 28059U 03049C   26073.54110321  .00000464  00000+0  11808-3 0  9999
2 28059  98.6882  68.6364 0047446 215.8095 143.9918 14.55025532187301
CZ-2C R/B               
1 28222U 04012C   26073.59703400  .00080599  00000+0  80874-3 0  9999
2 28222  97.7223 139.3571 0012958 289.7217  70.2644 15.65143192205049
SL-16 R/B               
1 28353U 04021B   26073.54831574 -.00000288  00000+0 -12488-3 0  9998
2 28353  70.9997 222.2957 0004339   2.5711 357.5432 14.14595913123522
CZ-4B R/B               
1 28415U 04035C   26073.62086045  .00011204  00000+0  39293-3 0  9997
2 28415  97.3499 107.8047 0030525 313.3150  46.5545 15.29160798180669
CZ-2C R/B               
1 28480U 04046B   26073.60424156  .00000141  00000+0  67177-4 0  9999
2 28480  98.1981 348.2823 0140148 139.9634 221.1980 14.26993937109201
ARIANE 5 R/B            
1 28499U 04049H   26073.48315660  .00000854  00000+0  10065-3 0  9991
2 28499  98.2634 242.1197 0083602 336.3338  23.4039 14.85275527146503
CZ-2D R/B               
1 28738U 05024B   26073.58319978  .00059010  00000+0  71030-3 0  9995
2 28738  97.3593  88.9107 0005003  34.6697 325.4885 15.60629466140546
ALOS (DAICHI)           
1 28931U 06002A   26073.47251319  .00001570  00000+0  27115-3 0  9992
2 28931  98.1224  29.4041 0000772  65.5936 294.5350 14.69827339 74181
